NORAD_CAT_ID,OBJECT_NAME,OBJECT_TYPE,EPOCH,MEAN_MOTION,ECCENTRICITY,INCLINATION,RA_OF_ASC_NODE,ARG_OF_PERICENTER,MEAN_ANOMALY,BSTAR,MEAN_MOTION_DOT,MEAN_MOTION_DDOT,TLE_LINE0,TLE_LINE1,TLE_LINE2,SEMIMAJOR_AXIS,PERIOD,APOGEE,PERIGEE,DECAYED
53538.0,STARLINK-4118,PAYLOAD,2024-05-18 07:02:25,15.08850481,0.000155,53.2147,148.7539,91.058,269.059,0.00018874,2.718e-05,0.0,0 STARLINK-4118,1 53538U 22101M   24139.29335075  .00002718  00000-0  18874-3 0  9992,2 53538  53.2147 148.7539 0001550  91.0580 269.0590 15.08850481 97297,6917.848,95.437,540.786,538.641,0.0
53538.0,STARLINK-4118,PAYLOAD,2024-05-18 18:10:07,15.08855167,0.0001655,53.2148,146.6725,85.8086,274.3095,0.00036662,5.554e-05,0.0,0 STARLINK-4118,1 53538U 22101M   24139.75702830  .00005554  00000-0  36662-3 0  9996,2 53538  53.2148 146.6725 0001655  85.8086 274.3095 15.08855167 97363,6917.834,95.437,540.844,538.554,0.0
53538.0,STARLINK-4118,PAYLOAD,2024-05-19 05:17:49,15.08834474,0.0001638,53.2146,144.5908,94.6938,265.4241,-3.9029e-05,-9.09e-06,0.0,0 STARLINK-4118,1 53538U 22101M   24140.22071633 -.00000909  00000-0 -39029-4 0  9992,2 53538  53.2146 144.5908 0001638  94.6938 265.4241 15.08834474 96749,6917.897,95.438,540.895,538.629,0.0
53538.0,STARLINK-4118,PAYLOAD,2024-05-19 06:53:12,15.08834849,0.0001643,53.2147,144.2936,94.0967,266.0213,-0.00011864,-2.175e-05,0.0,0 STARLINK-4118,1 53538U 22101M   24140.28695514 -.00002175  00000-0 -11864-3 0  9991,2 53538  53.2147 144.2936 0001643  94.0967 266.0213 15.08834849 97440,6917.896,95.438,540.898,538.625,0.0
53538.0,STARLINK-4118,PAYLOAD,2024-05-20 09:54:46,15.08837063,0.0001668,53.215,139.2379,101.4351,258.6828,0.00036493,5.524e-05,0.0,0 STARLINK-4118,1 53538U 22101M   24141.41304095  .00005524  00000-0  36493-3 0  9992,2 53538  53.2150 139.2379 0001668 101.4351 258.6828 15.08837063 96928,6917.889,95.438,540.908,538.6,0.0
53538.0,STARLINK-4118,PAYLOAD,2024-05-21 06:34:47,15.08844046,0.00016,53.2149,135.3719,102.437,257.6801,0.00026864,3.99e-05,0.0,0 STARLINK-4118,1 53538U 22101M   24142.27415902  .00003990  00000-0  26864-3 0  9993,2 53538  53.2149 135.3719 0001600 102.4370 257.6801 15.08844046 97749,6917.868,95.437,540.84,538.626,0.0
53538.0,STARLINK-4118,PAYLOAD,2024-05-22 04:50:11,15.0884293,0.0001517,53.2145,131.2084,95.684,264.4325,0.00010226,1.34e-05,0.0,0 STARLINK-4118,1 53538U 22101M   24143.20151754  .00001340  00000-0  10226-3 0  9991,2 53538  53.2145 131.2084 0001517  95.6840 264.4325 15.08842930 97193,6917.871,95.437,540.786,538.687,0.0
53538.0,STARLINK-4118,PAYLOAD,2024-05-22 06:25:34,15.0884283,0.0001524,53.2146,130.9111,96.085,264.0316,9.1826e-05,1.174e-05,0.0,0 STARLINK-4118,1 53538U 22101M   24143.26775736  .00001174  00000-0  91826-4 0  9990,2 53538  53.2146 130.9111 0001524  96.0850 264.0316 15.08842830 97897,6917.872,95.437,540.791,538.682,0.0
53538.0,STARLINK-4118,PAYLOAD,2024-05-23 04:40:58,15.08838725,0.0001553,53.2157,126.7461,98.0676,262.0492,1.0249e-05,-1.25e-06,0.0,0 STARLINK-4118,1 53538U 22101M   24144.19511918 -.00000125  00000-0  10249-4 0  9999,2 53538  53.2157 126.7461 0001553  98.0676 262.0492 15.08838725 97341,6917.884,95.438,540.824,538.675,0.0
53538.0,STARLINK-4118,PAYLOAD,2024-05-23 09:27:07,15.08837488,0.0001513,53.2154,125.8556,95.548,264.5685,-9.9492e-06,-4.46e-06,0.0,0 STARLINK-4118,1 53538U 22101M   24144.39384009 -.00000446  00000-0 -99492-5 0  9995,2 53538  53.2154 125.8556 0001513  95.5480 264.5685 15.08837488 98060,6917.888,95.438,540.8,538.706,0.0
53538.0,STARLINK-4118,PAYLOAD,2024-05-24 06:07:08,15.08839673,0.0001412,53.2163,121.9898,92.6479,267.4674,7.0807e-05,8.39e-06,0.0,0 STARLINK-4118,1 53538U 22101M   24145.25496237  .00000839  00000-0  70807-4 0  9990,2 53538  53.2163 121.9898 0001412  92.6479 267.4674 15.08839673 97506,6917.881,95.438,540.723,538.77,0.0
53538.0,STARLINK-4118,PAYLOAD,2024-05-24 22:00:59,15.08840286,0.0001329,53.2162,119.0158,93.4335,266.6809,0.00011189,1.493e-05,0.0,0 STARLINK-4118,1 53538U 22101M   24145.91736078  .00001493  00000-0  11189-3 0  9997,2 53538  53.2162 119.0158 0001329  93.4335 266.6809 15.08840286 98299,6917.88,95.438,540.664,538.825,0.0
53538.0,STARLINK-4118,PAYLOAD,2024-05-25 04:22:32,15.0884058,0.0001328,53.2163,117.8262,92.8143,267.3001,0.00010635,1.405e-05,0.0,0 STARLINK-4118,1 53538U 22101M   24146.18232081  .00001405  00000-0  10635-3 0  9990,2 53538  53.2163 117.8262 0001328  92.8143 267.3001 15.08840580 98335,6917.879,95.438,540.662,538.825,0.0
53538.0,STARLINK-4118,PAYLOAD,2024-05-25 15:30:15,15.08818911,5.82e-05,53.2159,115.7472,136.4917,223.6121,-8.4604e-05,-1.633e-05,0.0,0 STARLINK-4118,1 53538U 22101M   24146.64601512 -.00001633  00000-0 -84604-4 0  9993,2 53538  53.2159 115.7472 0000582 136.4917 223.6121 15.08818911 97717,6917.945,95.439,540.212,539.407,0.0
53538.0,STARLINK-4118,PAYLOAD,2024-05-26 04:13:19,15.0883859,0.0001427,53.2169,113.3663,98.0161,262.0993,4.9182e-05,4.95e-06,0.0,0 STARLINK-4118,1 53538U 22101M   24147.17592366  .00000495  00000-0  49182-4 0  9993,2 53538  53.2169 113.3663 0001427  98.0161 262.0993 15.08838590 97794,6917.885,95.438,540.737,538.763,0.0
53538.0,STARLINK-4118,PAYLOAD,2024-05-27 07:14:53,15.08837878,0.0001451,53.2178,108.3113,98.7171,261.3986,2.2305e-05,6.7e-07,0.0,0 STARLINK-4118,1 53538U 22101M   24148.30200453  .00000067  00000-0  22305-4 0  9995,2 53538  53.2178 108.3113 0001451  98.7171 261.3986 15.08837878 97964,6917.887,95.438,540.756,538.748,0.0
53538.0,STARLINK-4118,PAYLOAD,2024-05-28 13:27:12,15.08836023,0.0001297,53.2169,102.6614,105.6897,254.4238,3.3071e-05,2.38e-06,0.0,0 STARLINK-4118,1 53538U 22101M   24149.56056625  .00000238  00000-0  33071-4 0  9996,2 53538  53.2169 102.6614 0001297 105.6897 254.4238 15.08836023 98840,6917.893,95.438,540.655,538.86,0.0
53538.0,STARLINK-4118,PAYLOAD,2024-05-28 21:24:08,15.08835141,0.0001325,53.2169,101.1742,107.5154,252.5983,4.933e-05,4.97e-06,0.0,0 STARLINK-4118,1 53538U 22101M   24149.89176676  .00000497  00000-0  49330-4 0  9993,2 53538  53.2169 101.1742 0001325 107.5154 252.5983 15.08835141 98896,6917.895,95.438,540.677,538.844,0.0
53538.0,STARLINK-4118,PAYLOAD,2024-05-29 03:45:41,15.08835892,0.0001306,53.217,99.9851,98.3139,261.8001,5.2823e-05,5.53e-06,0.0,0 STARLINK-4118,1 53538U 22101M   24150.15672719  .00000553  00000-0  52823-4 0  9997,2 53538  53.2170  99.9851 0001306  98.3139 261.8001 15.08835892 98934,6917.893,95.438,540.661,538.854,0.0
53538.0,STARLINK-4118,PAYLOAD,2024-05-30 05:11:51,15.0883756,0.0001347,53.2175,95.229,95.9702,264.1444,5.8951e-05,6.5e-06,0.0,0 STARLINK-4118,1 53538U 22101M   24151.21656989  .00000650  00000-0  58951-4 0  9992,2 53538  53.2175  95.2290 0001347  95.9702 264.1444 15.08837560 98402,6917.888,95.438,540.685,538.821,0.0
53538.0,STARLINK-4118,PAYLOAD,2024-05-31 05:02:38,15.08841963,0.0001395,53.2178,90.7662,95.4534,264.6617,9.7381e-05,1.262e-05,0.0,0 STARLINK-4118,1 53538U 22101M   24152.21016778  .00001262  00000-0  97381-4 0  9999,2 53538  53.2178  90.7662 0001395  95.4534 264.6617 15.08841963 99241,6917.874,95.437,540.704,538.774,0.0
53538.0,STARLINK-4118,PAYLOAD,2024-06-01 03:18:02,15.08837795,0.0001419,53.2179,86.6047,84.226,275.8894,-6.3592e-06,-3.89e-06,0.0,0 STARLINK-4118,1 53538U 22101M   24153.13753357 -.00000389  00000-0 -63592-5 0  9991,2 53538  53.2179  86.6047 0001419  84.2260 275.8894 15.08837795 98699,6917.887,95.438,540.734,538.77,0.0
53538.0,STARLINK-4118,PAYLOAD,2024-06-01 12:50:21,15.08847024,0.0001472,53.2185,84.8225,86.6813,273.4348,6.3261e-05,7.19e-06,0.0,0 STARLINK-4118,1 53538U 22101M   24153.53496557  .00000719  00000-0  63261-4 0  9998,2 53538  53.2185  84.8225 0001472  86.6813 273.4348 15.08847024 98754,6917.859,95.437,540.742,538.706,0.0
53538.0,STARLINK-4118,PAYLOAD,2024-06-01 19:11:54,15.08825071,0.0001224,53.219,83.6292,96.3018,263.8113,-2.4553e-05,-6.78e-06,0.0,0 STARLINK-4118,1 53538U 22101M   24153.79994105 -.00000678  00000-0 -24553-4 0  9995,2 53538  53.2190  83.6292 0001224  96.3018 263.8113 15.08825071 98796,6917.926,95.438,540.638,538.944,0.0
53538.0,STARLINK-4118,PAYLOAD,2024-06-02 04:44:12,15.08843987,0.0001386,53.2175,81.8456,103.8101,256.3045,4.0915e-05,3.63e-06,0.0,0 STARLINK-4118,1 53538U 22101M   24154.19736796  .00000363  00000-0  40915-4 0  9999,2 53538  53.2175  81.8456 0001386 103.8101 256.3045 15.08843987 98851,6917.868,95.437,540.692,538.774,0.0
53538.0,STARLINK-4118,PAYLOAD,2024-06-02 12:41:07,15.08852463,0.0001362,53.2182,80.3592,105.3653,254.7489,8.0418e-05,9.93e-06,0.0,0 STARLINK-4118,1 53538U 22101M   24154.52856062  .00000993  00000-0  80418-4 0  9996,2 53538  53.2182  80.3592 0001362 105.3653 254.7489 15.08852463 98906,6917.842,95.437,540.65,538.765,0.0
53538.0,STARLINK-4118,PAYLOAD,2024-06-03 04:34:59,15.08840261,0.0001441,53.2183,77.3851,99.1502,260.9653,3.0413e-05,1.96e-06,0.0,0 STARLINK-4118,1 53538U 22101M   24155.19097097  .00000196  00000-0  30413-4 0  9990,2 53538  53.2183  77.3851 0001441  99.1502 260.9653 15.08840261 99009,6917.88,95.438,540.741,538.748,0.0
53538.0,STARLINK-4118,PAYLOAD,2024-06-04 04:25:46,15.08845515,0.00014,53.2181,72.925,100.4479,259.6671,8.0143e-05,9.88e-06,0.0,0 STARLINK-4118,1 53538U 22101M   24156.18456576  .00000988  00000-0  80143-4 0  9995,2 53538  53.2181  72.9250 0001400 100.4479 259.6671 15.08845515 99849,6917.864,95.437,540.697,538.76,0.0
53538.0,STARLINK-4118,PAYLOAD,2024-06-05 01:05:47,15.08834363,0.0001387,53.2193,69.0601,86.8338,273.2813,6.7419e-05,7.85e-06,0.0,0 STARLINK-4118,1 53538U 22101M   24157.04569436  .00000785  00000-0  67419-4 0  9997,2 53538  53.2193  69.0601 0001387  86.8338 273.2813 15.08834363 99281,6917.898,95.438,540.722,538.803,0.0
53538.0,STARLINK-4118,PAYLOAD,2024-06-05 10:38:06,15.08843952,0.0001266,53.2186,67.2756,85.5001,274.6136,6.7539e-05,7.87e-06,0.0,0 STARLINK-4118,1 53538U 22101M   24157.44312825  .00000787  00000-0  67539-4 0  9994,2 53538  53.2186  67.2756 0001266  85.5001 274.6136 15.08843952 99347,6917.868,95.437,540.609,538.858,0.0
